KUIPER-00186            
1 67140U 25301H   26002.92770138  .00038421  00000+0  11032-2 0  9992
2 67140  51.8688  23.0057 0007700 153.4859 206.6522 15.35445097  3629
KUIPER-00187            
1 67141U 25301J   26002.91866918  .00048997  00000+0  13727-2 0  9996
2 67141  51.8719  22.9485 0005301 142.0034 218.1327 15.36120281  3629
KUIPER-00188            
1 67142U 25301K   26002.92875841  .00034718  00000+0  10003-2 0  9993
2 67142  51.8698  23.0132 0007560 157.4070 202.7250 15.35389810  3624
KUIPER-00191            
1 67143U 25301L   26002.92637956  .00082812  00000+0  23463-2 0  9999
2 67143  51.8679  22.9969 0006738 153.5105 206.6227 15.35520366  3655
KUIPER-00196            
1 67144U 25301M   26002.91655146  .00039898  00000+0  11150-2 0  9996
2 67144  51.8736  22.9334 0003856 119.1677 240.9695 15.36296436  3622
KUIPER-00204            
1 67145U 25301N   26002.91061439  .00010166  00000+0  29411-3 0  9990
2 67145  51.8748  22.8882 0002796  90.1003 270.0304 15.36205353  3737
KUIPER-00210            
1 67146U 25301P   26002.93767889  .00079745  00000+0  23270-2 0  9999
2 67146  51.8602  23.0624 0010450 173.6563 186.4557 15.34583229  3793
KUIPER-00221            
1 67147U 25301Q   26002.91994474  .00067597  00000+0  18887-2 0  9990
2 67147  51.8726  22.9564 0005156 137.9521 222.1862 15.36060982  3623
