<?xml version="1.0" encoding="UTF-8"?>
<ndm xmlns:xsi="http://www.w3.org/2001/XMLSchema-instance" xsi:noNamespaceSchemaLocation="https://sanaregistry.org/r/ndmxml_unqualified/ndmxml-2.0.0-master-2.0.xsd">
<omm id="CCSDS_OMM_VERS" version="2.0">
<header><CREATION_DATE/><ORIGINATOR/></header><body><segment><metadata><OBJECT_NAME>KUIPER-00186</OBJECT_NAME><OBJECT_ID>2025-301H</OBJECT_ID><CENTER_NAME>EARTH</CENTER_NAME><REF_FRAME>TEME</REF_FRAME><TIME_SYSTEM>UTC</TIME_SYSTEM><MEAN_ELEMENT_THEORY>SGP4</MEAN_ELEMENT_THEORY></metadata><data><meanElements><EPOCH>2026-01-02T22:15:53.399232</EPOCH><MEAN_MOTION>15.35445097</MEAN_MOTION><ECCENTRICITY>.00077006</ECCENTRICITY><INCLINATION>51.8688</INCLINATION><RA_OF_ASC_NODE>23.0057</RA_OF_ASC_NODE><ARG_OF_PERICENTER>153.4859</ARG_OF_PERICENTER><MEAN_ANOMALY>206.6522</MEAN_ANOMALY></meanElements><tleParameters><EPHEMERIS_TYPE>0</EPHEMERIS_TYPE><CLASSIFICATION_TYPE>U</CLASSIFICATION_TYPE><NORAD_CAT_ID>67140</NORAD_CAT_ID><ELEMENT_SET_NO>999</ELEMENT_SET_NO><REV_AT_EPOCH>362</REV_AT_EPOCH><BSTAR>.11032437E-2</BSTAR><MEAN_MOTION_DOT>.38421E-3</MEAN_MOTION_DOT><MEAN_MOTION_DDOT>0</MEAN_MOTION_DDOT></tleParameters></data></segment></body></omm>
<omm id="CCSDS_OMM_VERS" version="2.0">
<header><CREATION_DATE/><ORIGINATOR/></header><body><segment><metadata><OBJECT_NAME>KUIPER-00187</OBJECT_NAME><OBJECT_ID>2025-301J</OBJECT_ID><CENTER_NAME>EARTH</CENTER_NAME><REF_FRAME>TEME</REF_FRAME><TIME_SYSTEM>UTC</TIME_SYSTEM><MEAN_ELEMENT_THEORY>SGP4</MEAN_ELEMENT_THEORY></metadata><data><meanElements><EPOCH>2026-01-02T22:02:53.017152</EPOCH><MEAN_MOTION>15.36120281</MEAN_MOTION><ECCENTRICITY>.00053019</ECCENTRICITY><INCLINATION>51.8719</INCLINATION><RA_OF_ASC_NODE>22.9485</RA_OF_ASC_NODE><ARG_OF_PERICENTER>142.0034</ARG_OF_PERICENTER><MEAN_ANOMALY>218.1327</MEAN_ANOMALY></meanElements><tleParameters><EPHEMERIS_TYPE>0</EPHEMERIS_TYPE><CLASSIFICATION_TYPE>U</CLASSIFICATION_TYPE><NORAD_CAT_ID>67141</NORAD_CAT_ID><ELEMENT_SET_NO>999</ELEMENT_SET_NO><REV_AT_EPOCH>362</REV_AT_EPOCH><BSTAR>.13726706E-2</BSTAR><MEAN_MOTION_DOT>.48997E-3</MEAN_MOTION_DOT><MEAN_MOTION_DDOT>0</MEAN_MOTION_DDOT></tleParameters></data></segment></body></omm>
<omm id="CCSDS_OMM_VERS" version="2.0">
<header><CREATION_DATE/><ORIGINATOR/></header><body><segment><metadata><OBJECT_NAME>KUIPER-00188</OBJECT_NAME><OBJECT_ID>2025-301K</OBJECT_ID><CENTER_NAME>EARTH</CENTER_NAME><REF_FRAME>TEME</REF_FRAME><TIME_SYSTEM>UTC</TIME_SYSTEM><MEAN_ELEMENT_THEORY>SGP4</MEAN_ELEMENT_THEORY></metadata><data><meanElements><EPOCH>2026-01-02T22:17:24.726624</EPOCH><MEAN_MOTION>15.35389810</MEAN_MOTION><ECCENTRICITY>.00075607</ECCENTRICITY><INCLINATION>51.8698</INCLINATION><RA_OF_ASC_NODE>23.0132</RA_OF_ASC_NODE><ARG_OF_PERICENTER>157.4070</ARG_OF_PERICENTER><MEAN_ANOMALY>202.7250</MEAN_ANOMALY></meanElements><tleParameters><EPHEMERIS_TYPE>0</EPHEMERIS_TYPE><CLASSIFICATION_TYPE>U</CLASSIFICATION_TYPE><NORAD_CAT_ID>67142</NORAD_CAT_ID><ELEMENT_SET_NO>999</ELEMENT_SET_NO><REV_AT_EPOCH>362</REV_AT_EPOCH><BSTAR>.10002625E-2</BSTAR><MEAN_MOTION_DOT>.34718E-3</MEAN_MOTION_DOT><MEAN_MOTION_DDOT>0</MEAN_MOTION_DDOT></tleParameters></data></segment></body></omm>
<omm id="CCSDS_OMM_VERS" version="2.0">
<header><CREATION_DATE/><ORIGINATOR/></header><body><segment><metadata><OBJECT_NAME>KUIPER-00191</OBJECT_NAME><OBJECT_ID>2025-301L</OBJECT_ID><CENTER_NAME>EARTH</CENTER_NAME><REF_FRAME>TEME</REF_FRAME><TIME_SYSTEM>UTC</TIME_SYSTEM><MEAN_ELEMENT_THEORY>SGP4</MEAN_ELEMENT_THEORY></metadata><data><meanElements><EPOCH>2026-01-02T22:13:59.193984</EPOCH><MEAN_MOTION>15.35520366</MEAN_MOTION><ECCENTRICITY>.00067384</ECCENTRICITY><INCLINATION>51.8679</INCLINATION><RA_OF_ASC_NODE>22.9969</RA_OF_ASC_NODE><ARG_OF_PERICENTER>153.5105</ARG_OF_PERICENTER><MEAN_ANOMALY>206.6227</MEAN_ANOMALY></meanElements><tleParameters><EPHEMERIS_TYPE>0</EPHEMERIS_TYPE><CLASSIFICATION_TYPE>U</CLASSIFICATION_TYPE><NORAD_CAT_ID>67143</NORAD_CAT_ID><ELEMENT_SET_NO>999</ELEMENT_SET_NO><REV_AT_EPOCH>365</REV_AT_EPOCH><BSTAR>.23463369E-2</BSTAR><MEAN_MOTION_DOT>.82812E-3</MEAN_MOTION_DOT><MEAN_MOTION_DDOT>0</MEAN_MOTION_DDOT></tleParameters></data></segment></body></omm>
<omm id="CCSDS_OMM_VERS" version="2.0">
<header><CREATION_DATE/><ORIGINATOR/></header><body><segment><metadata><OBJECT_NAME>KUIPER-00196</OBJECT_NAME><OBJECT_ID>2025-301M</OBJECT_ID><CENTER_NAME>EARTH</CENTER_NAME><REF_FRAME>TEME</REF_FRAME><TIME_SYSTEM>UTC</TIME_SYSTEM><MEAN_ELEMENT_THEORY>SGP4</MEAN_ELEMENT_THEORY></metadata><data><meanElements><EPOCH>2026-01-02T21:59:50.046144</EPOCH><MEAN_MOTION>15.36296436</MEAN_MOTION><ECCENTRICITY>.00038561</ECCENTRICITY><INCLINATION>51.8736</INCLINATION><RA_OF_ASC_NODE>22.9334</RA_OF_ASC_NODE><ARG_OF_PERICENTER>119.1677</ARG_OF_PERICENTER><MEAN_ANOMALY>240.9695</MEAN_ANOMALY></meanElements><tleParameters><EPHEMERIS_TYPE>0</EPHEMERIS_TYPE><CLASSIFICATION_TYPE>U</CLASSIFICATION_TYPE><NORAD_CAT_ID>67144</NORAD_CAT_ID><ELEMENT_SET_NO>999</ELEMENT_SET_NO><REV_AT_EPOCH>362</REV_AT_EPOCH><BSTAR>.11149889E-2</BSTAR><MEAN_MOTION_DOT>.39898E-3</MEAN_MOTION_DOT><MEAN_MOTION_DDOT>0</MEAN_MOTION_DDOT></tleParameters></data></segment></body></omm>
<omm id="CCSDS_OMM_VERS" version="2.0">
<header><CREATION_DATE/><ORIGINATOR/></header><body><segment><metadata><OBJECT_NAME>KUIPER-00204</OBJECT_NAME><OBJECT_ID>2025-301N</OBJECT_ID><CENTER_NAME>EARTH</CENTER_NAME><REF_FRAME>TEME</REF_FRAME><TIME_SYSTEM>UTC</TIME_SYSTEM><MEAN_ELEMENT_THEORY>SGP4</MEAN_ELEMENT_THEORY></metadata><data><meanElements><EPOCH>2026-01-02T21:51:17.083296</EPOCH><MEAN_MOTION>15.36205353</MEAN_MOTION><ECCENTRICITY>.00027963</ECCENTRICITY><INCLINATION>51.8748</INCLINATION><RA_OF_ASC_NODE>22.8882</RA_OF_ASC_NODE><ARG_OF_PERICENTER>90.1003</ARG_OF_PERICENTER><MEAN_ANOMALY>270.0304</MEAN_ANOMALY></meanElements><tleParameters><EPHEMERIS_TYPE>0</EPHEMERIS_TYPE><CLASSIFICATION_TYPE>U</CLASSIFICATION_TYPE><NORAD_CAT_ID>67145</NORAD_CAT_ID><ELEMENT_SET_NO>999</ELEMENT_SET_NO><REV_AT_EPOCH>373</REV_AT_EPOCH><BSTAR>.29410645E-3</BSTAR><MEAN_MOTION_DOT>.10166E-3</MEAN_MOTION_DOT><MEAN_MOTION_DDOT>0</MEAN_MOTION_DDOT></tleParameters></data></segment></body></omm>
<omm id="CCSDS_OMM_VERS" version="2.0">
<header><CREATION_DATE/><ORIGINATOR/></header><body><segment><metadata><OBJECT_NAME>KUIPER-00210</OBJECT_NAME><OBJECT_ID>2025-301P</OBJECT_ID><CENTER_NAME>EARTH</CENTER_NAME><REF_FRAME>TEME</REF_FRAME><TIME_SYSTEM>UTC</TIME_SYSTEM><MEAN_ELEMENT_THEORY>SGP4</MEAN_ELEMENT_THEORY></metadata><data><meanElements><EPOCH>2026-01-02T22:30:15.456096</EPOCH><MEAN_MOTION>15.34583229</MEAN_MOTION><ECCENTRICITY>.00104506</ECCENTRICITY><INCLINATION>51.8602</INCLINATION><RA_OF_ASC_NODE>23.0624</RA_OF_ASC_NODE><ARG_OF_PERICENTER>173.6563</ARG_OF_PERICENTER><MEAN_ANOMALY>186.4557</MEAN_ANOMALY></meanElements><tleParameters><EPHEMERIS_TYPE>0</EPHEMERIS_TYPE><CLASSIFICATION_TYPE>U</CLASSIFICATION_TYPE><NORAD_CAT_ID>67146</NORAD_CAT_ID><ELEMENT_SET_NO>999</ELEMENT_SET_NO><REV_AT_EPOCH>379</REV_AT_EPOCH><BSTAR>.23270491E-2</BSTAR><MEAN_MOTION_DOT>.79745E-3</MEAN_MOTION_DOT><MEAN_MOTION_DDOT>0</MEAN_MOTION_DDOT></tleParameters></data></segment></body></omm>
<omm id="CCSDS_OMM_VERS" version="2.0">
<header><CREATION_DATE/><ORIGINATOR/></header><body><segment><metadata><OBJECT_NAME>KUIPER-00221</OBJECT_NAME><OBJECT_ID>2025-301Q</OBJECT_ID><CENTER_NAME>EARTH</CENTER_NAME><REF_FRAME>TEME</REF_FRAME><TIME_SYSTEM>UTC</TIME_SYSTEM><MEAN_ELEMENT_THEORY>SGP4</MEAN_ELEMENT_THEORY></metadata><data><meanElements><EPOCH>2026-01-02T22:04:43.225536</EPOCH><MEAN_MOTION>15.36060982</MEAN_MOTION><ECCENTRICITY>.00051563</ECCENTRICITY><INCLINATION>51.8726</INCLINATION><RA_OF_ASC_NODE>22.9564</RA_OF_ASC_NODE><ARG_OF_PERICENTER>137.9521</ARG_OF_PERICENTER><MEAN_ANOMALY>222.1862</MEAN_ANOMALY></meanElements><tleParameters><EPHEMERIS_TYPE>0</EPHEMERIS_TYPE><CLASSIFICATION_TYPE>U</CLASSIFICATION_TYPE><NORAD_CAT_ID>67147</NORAD_CAT_ID><ELEMENT_SET_NO>999</ELEMENT_SET_NO><REV_AT_EPOCH>362</REV_AT_EPOCH><BSTAR>.18886508E-2</BSTAR><MEAN_MOTION_DOT>.67597E-3</MEAN_MOTION_DOT><MEAN_MOTION_DDOT>0</MEAN_MOTION_DDOT></tleParameters></data></segment></body></omm>

</ndm>
